ARIANE 5 R/B
1 38993U 12062C   13081.65235082  .00003696  00000-0  77411-3 0   805
2 38993 002.2013 122.0833 7281395 302.7643 007.1552 02.28724751  2977
ARIANE 5 DEB (SYLDA)
1 38994U 12062D   13082.29289912  .00027817  00000-0  54830-2 0   987
2 38994 001.8611 129.0550 7259322 296.5329 008.4255 02.31664107  3030
MERIDIAN 6
1 38995U 12063A   13082.76764577  .00000254  00000-0  00000+0 0   877
2 38995 062.8564 162.4345 7165858 295.0652 009.1372 02.00613973  2590
FREGAT R/B
1 38996U 12063B   13082.97849398  .00000668  00000-0  00000+0 0   617
2 38996 062.8016 162.0363 7216332 294.7667 008.9502 02.00190471  2590
HJ-1C
1 38997U 12064A   13083.16810280  .00004894  00000-0  20213-3 0  4081
2 38997 097.3498 091.0828 0012134 162.6081 268.8353 15.24410315 19057
FENGNIAO 1 (FN-1)
1 38998U 12064B   13083.20115380  .00003467  00000-0  14264-3 0  4080
2 38998 097.3484 091.1885 0009878 175.7362 314.6039 15.24761245 19057
XINYAN 1 (XY-1)
1 38999U 12064C   13083.08630780  .00004684  00000-0  19264-3 0  4002
2 38999 097.3492 091.0332 0010230 166.8832 279.5478 15.24591655 19030
CZ-2C R/B
1 39000U 12064D   13083.24672244  .00006393  00000-0  22380-3 0  1149
2 39000 097.3545 092.2224 0009407 319.5201 040.5334 15.29809485 19122
CZ-2C DEB
1 39001U 12064E   13082.77587954  .00008407  00000-0  74069-3 0   902
2 39001 097.5885 087.1607 0172779 120.3962 241.4459 14.85853576 17843
H-2A DEB
1 39002U 12025J   13019.29897445  .08524893  00000-0  11271+0 0  1325
2 39002 098.1449 327.2492 0025374 159.9972 200.1070 15.53247542  9819
H-2A DEB
1 39003U 12025K   13082.48492163  .00111414  00000-0  12437-1 0  1673
2 39003 098.1483 029.0247 0051531 099.6344 261.0698 14.85443810 19105
H-2A DEB
1 39004U 12025L   13082.83920384  .00054494  00000-0  71440-2 0  1588
2 39004 098.1337 028.9065 0036637 083.7108 276.8274 14.79603445 19156
H-2A DEB
1 39005U 12025M   13083.13040894  .00041742  00000-0  58315-2 0  1557
2 39005 098.1201 028.2995 0064734 093.2584 267.6034 14.76017070 19168
H-2A DEB
1 39006U 12025N   12352.77545591  .04422708  00000-0  10375+0 0   234
2 39006 098.1227 294.2992 0049163 108.5544 252.1990 15.40738554  5102
H-2A DEB
1 39007U 12025P   13017.39535776  .15363291  00000-0  13819+0 0  1102
2 39007 098.1073 325.3883 0034940 131.5405 231.7011 15.61162175  9403
ECHOSTAR 16
1 39008U 12065A   13081.37258786 -.00000294  00000-0  10000-3 0   927
2 39008 000.0018 168.2743 0002785 185.6067 258.7783 01.00272757  1324
BREEZE-M R/B
1 39009U 12065B   13082.30794418 -.00000232  00000-0  00000+0 0   645
2 39009 030.3945 313.8196 6890740 053.9241 351.7793 02.23061521  2836
BREEZE-M DEB (TANK)
1 39010U 12065C   13080.97523925  .00003709  00000-0  67810-3 0   659
2 39010 049.6277 231.2931 4735843 089.2675 322.7102 06.05205428  7200
YAOGAN 16A
1 39011U 12066A   13083.00232919 -.00000032  00000-0  98932-4 0  2208
2 39011 063.3814 128.4655 0012229 340.4672 019.5872 13.45071177 15985
YAOGAN 16B
1 39012U 12066B   13083.00253385 -.00000246  00000-0 -26489-3 0  2136
2 39012 063.3814 128.4667 0012050 339.9475 020.1057 13.45070354 15995
YAOGAN 16C
1 39013U 12066C   13083.00234303  .00000042  00000-0  22474-3 0  3926
2 39013 063.3843 127.5756 0012068 339.2573 020.8008 13.45071155 16015
CZ-4C R/B
1 39014U 12066D   13081.51522780 -.00000072  00000-0  25448-4 0   690
2 39014 063.4376 119.7292 0156941 019.1240 341.5601 13.70066396 16077
CZ-4C DEB
1 39015U 12066E   13082.91025548 -.00000090  00000-0  00000+0 0   722
2 39015 063.3897 129.5201 0023295 006.9193 353.2155 13.43857135 15960
CZ-4C DEB
1 39016U 12066F   13082.87683895 -.00000090  00000-0  00000+0 0   699
2 39016 063.3855 129.3993 0025079 009.7952 350.3558 13.44236085 15968
CHINASAT 12
1 39017U 12067A   13082.88991882  .00000096  00000-0  00000+0 0   897
2 39017 000.0591 251.3361 0002482 106.9458 195.1137 01.00270658  1240
CZ-3B R/B
1 39018U 12067B   13082.95667343  .00067124 -55585-6  35469-3 0  1205
2 39018 026.0644 188.3785 7899400 227.3491 032.2427 01.59132538  1884
EUTE 70B
1 39020U 12069A   13082.30152495 -.00000055  00000-0  00000+0 0  1537
2 39020 000.0574 257.8968 0002574 119.6140 342.4873 01.00271015  1141
BLOCK DM-SL R/B
1 39021U 12069B   13081.04001169  .00000006  00000-0  10000-3 0   583
2 39021 000.3357 050.8506 6876055 030.5300 344.9374 02.21897929  2406
YAMAL 402
1 39022U 12070A   13082.79888330  .00000075  00000-0  10000-3 0   869
2 39022 000.0321 294.5352 0001647 103.6204 125.7405 01.00272107  1137
BREEZE-M R/B
1 39023U 12070B   13081.00805726 -.00000017  00000-0  00000+0 0   683
2 39023 025.3411 264.4186 6369591 033.5625 354.0678 02.09998134  2188
BREEZE-M DEB (TANK)
1 39024U 12070C   13082.84253445  .00000155  00000-0  22796-3 0   561
2 39024 047.5419 256.9746 7215797 026.1940 356.9864 02.27321177  2385
KMS 3-2
1 39026U 12072A   13083.19398768  .00004776  00000-0  29063-3 0  3359
2 39026 097.3885 134.4996 0058810 181.4905 178.6120 15.09423370 15418
UNHA 3 R/B
1 39027U 12072B   13082.68198813  .00001097  00000-0  72081-4 0  2544
2 39027 097.3878 133.8109 0065190 186.7453 173.2905 15.07947092 15327
UNHA 3 DEB
1 39028U 12072C   13082.66494895  .00003731  00000-0  21714-3 0  1263
2 39028 097.4313 134.8221 0051455 185.3449 174.7239 15.11523434 15352
UNHA 3 DEB
1 39029U 12072D   13082.17605747  .00004367  00000-0  26905-3 0  1106
2 39029 097.3479 132.9068 0061479 183.2776 176.8060 15.08887475 15247
GOKTURK 2
1 39030U 12073A   13083.04954253  .00000323  00000-0  70326-4 0  3078
2 39030 098.1524 339.7198 0015608 335.0827 024.9619 14.64260294 13962
CZ-2D R/B
1 39031U 12073B   12365.95711743  .15500500  25183-5  13293-3 0   513
2 39031 096.5367 256.5509 0064064 301.5773 059.1755 16.44349305  1914
SOYUZ-TMA 7M
1 39032U 12074A   12356.58336686  .00011089  00000-0  18744-3 0   147
2 39032 051.6486 270.6092 0017375 070.4650 350.6635 15.51988176   302
SL-4 R/B
1 39033U 12074B   12357.32097008  .14168991  12563-4  30065-3 0   223
2 39033 051.6365 265.9382 0007918 094.5779 266.6125 16.46269684   467
SKYNET 5D
1 39034U 12075A   13082.17876809  .00000020  00000-0  00000+0 0   840
2 39034 000.0762 201.1559 0000102 190.8981 265.0113 01.00697147  1046
MEXSAT 3
1 39035U 12075B   13082.39398631 -.00000037  00000-0  10000-3 0   751
2 39035 000.0053 174.1167 0003473 237.5680 156.3763 01.00273194  1004
ARIANE 5 R/B
1 39036U 12075C   13081.36825811  .00001286  00000-0  63699-3 0   582
2 39036 002.0622 192.9313 7265100 267.5849 015.5838 02.28406474  2116
ARIANE 5 DEB (SYLDA)
1 39037U 12075D   13081.86272286  .00010836  00000-0  48434-2 0   759
2 39037 001.7191 201.2406 7253335 259.7354 018.6239 02.30275044  2122
CZ-2C DEB
1 39038U 12064F   13082.62968450  .00010249  00000-0  90402-3 0   782
2 39038 097.1348 080.0545 0171954 114.5001 247.4255 14.85825465 17823
CZ-2C DEB
1 39039U 12064G   13083.16442233  .00021846  00000-0  10879-2 0   930
2 39039 097.5261 091.2341 0106415 148.8088 211.9518 15.12674453 18093
CZ-2C DEB
1 39040U 12064H   13082.46314844  .00022065  00000-0  11448-2 0   869
2 39040 097.1412 084.0521 0110632 143.9690 216.9064 15.10891249 17351
DMSP 5D-2 F9 DEB
1 39041U 88006G   13083.14539081  .00014874  00000-0  58276-2 0   710
2 39041 098.9104 305.0145 0004744 208.5016 151.5906 14.29502009 13507
DMSP 5D-2 F9 DEB
1 39042U 88006H   12363.49947811  .04735322  00000-0  72860+0 0    21
2 39042 098.9208 217.1852 0394518 008.8868 352.0968 14.28416515   561
DMSP 5D-2 F9 DEB
1 39043U 88006J   13082.55707878  .00009224  00000-0  43332-2 0   706
2 39043 098.8705 302.7270 0038952 348.5451 011.4834 14.19842860 16063
DMSP 5D-2 F9 DEB
1 39044U 88006K   13083.13745249  .00066981  00000-0  20243-1 0  1042
2 39044 099.0636 306.7787 0019772 225.0816 134.8768 14.41847387 17331
DMSP 5D-2 F9 DEB
1 39045U 88006L   13083.13075337  .01591465  00000-0  16698+0 0   987
2 39045 098.7912 303.3364 0123075 032.8854 327.9937 14.81063342 13599
DMSP 5D-2 F9 DEB
1 39046U 88006M   13082.60579253  .00000881  00000-0  50350-3 0   573
2 39046 098.8920 302.0937 0088468 107.8686 316.2132 14.10205348 12621
RESURS 01 DEB
1 39047U 94074X   13005.27669773  .01150963  00000-0  90896-2 0    72
2 39047 098.0932 022.3106 0008702 102.7678 258.4517 15.68890454 88950
RESURS 01 DEB
1 39048U 94074Y   13081.99506267  .00030330  00000-0  30183-2 0   723
2 39048 098.1506 083.6337 0004575 088.6945 329.7718 14.91568054766746
RESURS 01 DEB
1 39049U 94074Z   13082.78819336  .00013709  00000-0  17613-2 0   742
2 39049 098.1582 082.2202 0003391 103.7544 256.4045 14.81292335989433
RESURS 01 DEB
1 39050U 94074AA  13082.95091203  .00014020  00000-0  17632-2 0   791
2 39050 098.1576 082.4726 0003780 110.5887 249.5731 14.82181046 17084
RESURS 01 DEB
1 39051U 94074AB  13083.00883646  .00012361  00000-0  15888-2 0   684
2 39051 098.1563 082.3953 0003216 107.7865 252.3698 14.81302603 15096
CZ-4 DEB
1 39052U 99057SZ  13082.31780151  .00000959  00000-0  11389-3 0   369
2 39052 098.7654 279.4107 0070271 103.6038 257.3625 14.85536919 25253
COSMOS 1461 DEB
1 39053U 83044GE  13080.29866369  .01452792  00000-0  22133-1 0   331
2 39053 064.9752 348.0924 0039259 270.7822 088.8823 15.50392451460979
SL-12 DEB
1 39054U 92047AV  13081.19824645 -.00000017  00000-0  00000+0 0   152
2 39054 065.5198 012.7433 2413962 132.6696 250.4548 08.59887872 15654
CZ-4 DEB
1 39055U 90081DP  13081.29709872  .00000570  00000-0  31952-3 0   151
2 39055 098.7876 116.8000 0009038 235.4350 184.2476 14.14534062 36536
COSMOS 1275 DEB
1 39056U 81053NA  13067.58529057  .00000496  00000-0  61127-3 0    33
2 39056 082.9501 177.4430 0129448 014.9435 347.1013 13.60010112 15505
COSMOS 2482
1 39057U 13001A   13083.17957855  .00000056  00000-0  33269-3 0  2058
2 39057 082.5027 346.7318 0027837 124.0497 236.3232 12.42838325  8384
COSMOS 2483
1 39058U 13001B   13083.14481909  .00000010  00000-0  00000+0 0  2017
2 39058 082.5052 346.7253 0016862 130.4053 229.8503 12.43925905  8375
